{
  "norad_id": 67294,
  "name": "SITRO-AIS-63",
  "history": [
    {
      "epoch": "2026-05-02T11:07:59.215584Z",
      "apogee_km": 500.09901520484163,
      "perigee_km": 486.3398111231227,
      "latitude_deg": -3.0246528739236074e-05,
      "longitude_deg": 170.7569230529552,
      "height_km": 502.26092016383654,
      "semi_major_axis_km": 6871.356413163982,
      "eccentricity": 0.0010012,
      "inclination_deg": 97.3956,
      "raan_deg": 198.1352,
      "arg_perigee_deg": 149.9192,
      "mean_anomaly_deg": 210.2622,
      "mean_motion_rev_day": 15.24189791
    },
    {
      "epoch": "2026-05-03T20:13:14.831328Z",
      "apogee_km": 500.06322164881385,
      "perigee_km": 486.1970046145143,
      "latitude_deg": -2.3054586674710585e-05,
      "longitude_deg": 34.44329043129566,
      "height_km": 501.9551193280174,
      "semi_major_axis_km": 6871.267113131664,
      "eccentricity": 0.001009,
      "inclination_deg": 97.3951,
      "raan_deg": 199.4955,
      "arg_perigee_deg": 145.855,
      "mean_anomaly_deg": 214.3338,
      "mean_motion_rev_day": 15.24219504
    },
    {
      "epoch": "2026-05-04T19:51:15.969888Z",
      "apogee_km": 500.0188455648531,
      "perigee_km": 486.10466808228466,
      "latitude_deg": 1.2351170817287834e-06,
      "longitude_deg": 39.939440365431366,
      "height_km": 501.6971374502768,
      "semi_major_axis_km": 6871.198756823568,
      "eccentricity": 0.0010125,
      "inclination_deg": 97.3948,
      "raan_deg": 200.467,
      "arg_perigee_deg": 142.907,
      "mean_anomaly_deg": 217.2869,
      "mean_motion_rev_day": 15.24242249
    },
    {
      "epoch": "2026-05-05T19:29:15.745920Z",
      "apogee_km": 500.00301011461397,
      "perigee_km": 485.97354652134345,
      "latitude_deg": 3.9811862315141386e-05,
      "longitude_deg": 45.441480881703114,
      "height_km": 501.414160495218,
      "semi_major_axis_km": 6871.125278317978,
      "eccentricity": 0.0010209,
      "inclination_deg": 97.3946,
      "raan_deg": 201.4387,
      "arg_perigee_deg": 139.5888,
      "mean_anomaly_deg": 220.611,
      "mean_motion_rev_day": 15.24266699
    },
    {
      "epoch": "2026-05-06T20:41:46.176864Z",
      "apogee_km": 500.0192521922654,
      "perigee_km": 485.84423737177985,
      "latitude_deg": -2.492060352871339e-05,
      "longitude_deg": 27.31601524264864,
      "height_km": 501.148315895496,
      "semi_major_axis_km": 6871.068744782022,
      "eccentricity": 0.0010315,
      "inclination_deg": 97.3945,
      "raan_deg": 202.4753,
      "arg_perigee_deg": 136.4049,
      "mean_anomaly_deg": 223.8005,
      "mean_motion_rev_day": 15.24285511
    },
    {
      "epoch": "2026-05-07T15:36:08.415360Z",
      "apogee_km": 499.99502420810495,
      "perigee_km": 485.7994674562151,
      "latitude_deg": 2.9148712344515093e-05,
      "longitude_deg": 103.72429597752885,
      "height_km": 500.9163728331393,
      "semi_major_axis_km": 6871.034245832159,
      "eccentricity": 0.001033,
      "inclination_deg": 97.3945,
      "raan_deg": 203.2527,
      "arg_perigee_deg": 134.0654,
      "mean_anomaly_deg": 226.1436,
      "mean_motion_rev_day": 15.24296991
    },
    {
      "epoch": "2026-05-08T15:14:05.483616Z",
      "apogee_km": 499.97065030077465,
      "perigee_km": 485.7298421342639,
      "latitude_deg": -2.1117980247217654e-05,
      "longitude_deg": 109.23776199987175,
      "height_km": 500.6109787633337,
      "semi_major_axis_km": 6870.987246217519,
      "eccentricity": 0.0010363,
      "inclination_deg": 97.3945,
      "raan_deg": 204.2245,
      "arg_perigee_deg": 131.0807,
      "mean_anomaly_deg": 229.1327,
      "mean_motion_rev_day": 15.24312631
    },
    {
      "epoch": "2026-05-09T18:01:05.104128Z",
      "apogee_km": 499.9708540771144,
      "perigee_km": 485.63395191881864,
      "latitude_deg": -5.0247571077442885e-05,
      "longitude_deg": 67.49059636662787,
      "height_km": 500.27013178312575,
      "semi_major_axis_km": 6870.939402997966,
      "eccentricity": 0.0010433,
      "inclination_deg": 97.3944,
      "raan_deg": 205.3257,
      "arg_perigee_deg": 127.7347,
      "mean_anomaly_deg": 232.4837,
      "mean_motion_rev_day": 15.24328552
    },
    {
      "epoch": "2026-05-10T20:48:03.705120Z",
      "apogee_km": 499.9362592151019,
      "perigee_km": 485.584328947225,
      "latitude_deg": 4.032429621339398e-06,
      "longitude_deg": 25.747880738371663,
      "height_km": 499.88033306231404,
      "semi_major_axis_km": 6870.897294081163,
      "eccentricity": 0.0010444,
      "inclination_deg": 97.3948,
      "raan_deg": 206.4271,
      "arg_perigee_deg": 124.268,
      "mean_anomaly_deg": 235.9548,
      "mean_motion_rev_day": 15.24342565
    },
    {
      "epoch": "2026-05-11T17:16:55.032096Z",
      "apogee_km": 499.921053593308,
      "perigee_km": 485.5389547801451,
      "latitude_deg": 1.4840304788531052e-05,
      "longitude_deg": 78.53509505847022,
      "height_km": 499.59107761357274,
      "semi_major_axis_km": 6870.867004186726,
      "eccentricity": 0.0010466,
      "inclination_deg": 97.395,
      "raan_deg": 207.2693,
      "arg_perigee_deg": 121.7342,
      "mean_anomaly_deg": 238.4917,
      "mean_motion_rev_day": 15.24352645
    }
  ]
}